{
    "links": {
        "self": "http://www.neowsapp.com/rest/v1/neo/3291352?api_key=iIulBulltgU6a56xZRHN4H3l9WmuAYTsLGpBGhQ2"
    },
    "id": "3291352",
    "neo_reference_id": "3291352",
    "name": "(2005 SK26)",
    "designation": "2005 SK26",
    "nasa_jpl_url": "http://ssd.jpl.nasa.gov/sbdb.cgi?sstr=3291352",
    "absolute_magnitude_h": 25.5,
    "estimated_diameter": {
        "kilometers": {
            "estimated_diameter_min": 0.0211132445,
            "estimated_diameter_max": 0.0472106499
        },
        "meters": {
            "estimated_diameter_min": 21.113244479,
            "estimated_diameter_max": 47.2106498806
        },
        "miles": {
            "estimated_diameter_min": 0.0131191578,
            "estimated_diameter_max": 0.0293353287
        },
        "feet": {
            "estimated_diameter_min": 69.2691770164,
            "estimated_diameter_max": 154.8905885541
        }
    },
    "is_potentially_hazardous_asteroid": false,
    "close_approach_data": [
        {
            "close_approach_date": "2005-10-02",
            "close_approach_date_full": "2005-Oct-02 17:32",
            "epoch_date_close_approach": 1128274320000,
            "relative_velocity": {
                "kilometers_per_second": "7.9280703917",
                "kilometers_per_hour": "28541.0534099941",
                "miles_per_hour": "17734.3006591155"
            },
            "miss_distance": {
                "astronomical": "0.0112040235",
                "lunar": "4.3583651415",
                "kilometers": "1676098.051029945",
                "miles": "1041479.034885441"
            },
            "orbiting_body": "Earth"
        },
        {
            "close_approach_date": "2159-01-02",
            "close_approach_date_full": "2159-Jan-02 15:08",
            "epoch_date_close_approach": 5964419280000,
            "relative_velocity": {
                "kilometers_per_second": "17.7294698656",
                "kilometers_per_hour": "63826.0915161658",
                "miles_per_hour": "39659.0511423642"
            },
            "miss_distance": {
                "astronomical": "0.320544856",
                "lunar": "124.691948984",
                "kilometers": "47952827.69705672",
                "miles": "29796505.448633936"
            },
            "orbiting_body": "Earth"
        },
        {
            "close_approach_date": "2163-06-14",
            "close_approach_date_full": "2163-Jun-14 03:22",
            "epoch_date_close_approach": 6104690520000,
            "relative_velocity": {
                "kilometers_per_second": "9.796474854",
                "kilometers_per_hour": "35267.3094744854",
                "miles_per_hour": "21913.7346009657"
            },
            "miss_distance": {
                "astronomical": "0.0976385471",
                "lunar": "37.9813948219",
                "kilometers": "14606518.676054677",
                "miles": "9076069.8423494626"
            },
            "orbiting_body": "Mars"
        }
    ],
    "orbital_data": {
        "orbit_id": "8",
        "orbit_determination_date": "2017-04-06 09:10:24",
        "first_observation_date": "2005-09-29",
        "last_observation_date": "2005-10-02",
        "data_arc_in_days": 3,
        "observations_used": 42,
        "orbit_uncertainty": "7",
        "minimum_orbit_intersection": ".0119251",
        "jupiter_tisserand_invariant": "3.947",
        "epoch_osculation": "2459000.5",
        "eccentricity": ".4649783056032574",
        "semi_major_axis": "1.78822366325194",
        "inclination": "2.146704921452339",
        "ascending_node_longitude": "172.2342036391656",
        "orbital_period": "873.4361912470522",
        "perihelion_distance": ".9567384542734032",
        "perihelion_argument": "229.1898045001315",
        "aphelion_distance": "2.619708872230477",
        "perihelion_time": "2458914.561970552351",
        "mean_anomaly": "35.42066485358507",
        "mean_motion": ".4121651971920335",
        "equinox": "J2000",
        "orbit_class": {
            "orbit_class_type": "APO",
            "orbit_class_description": "Near-Earth asteroid orbits which cross the Earth’s orbit similar to that of 1862 Apollo",
            "orbit_class_range": "a (semi-major axis) > 1.0 AU; q (perihelion) < 1.017 AU"
        }
    },
    "is_sentry_object": false
}